HAWK-11A                
1 62382U 24247F   26068.51231358  .00009457  00000+0  34106-3 0  9991
2 62382  44.9941 114.3328 0005466 327.3713  32.6832 15.28849427 67741
STARLINK-36479          
1 67352U 26003U   26068.46070078  .00027003  00000+0  98666-3 0  9997
2 67352  42.9952 227.9371 0000248 253.6948 106.3876 15.27597927  8797
